GLOBALSTAR M075         
1 37192U 10054E   26025.58583087 -.00000090  00000+0  75999-4 0  9993
2 37192  51.9921 224.3831 0000952  83.7315 311.1292 12.62263940703933
GLOBALSTAR M073         
1 37193U 10054F   26025.51712074 -.00000088  00000+0  85277-4 0  9994
2 37193  52.0053 138.5818 0001070 103.7166 337.0621 12.62269004705912
GLOBALSTAR M083         
1 37739U 11033A   26025.62767955 -.00000095  00000+0  46450-4 0  9996
2 37739  51.9860  86.6695 0000702 104.6563  60.5647 12.62266797674940
GLOBALSTAR M088         
1 37740U 11033B   26025.10751075 -.00000084  00000+0  11241-3 0  9994
2 37740  52.0237 354.3332 0000280  68.3972  11.6345 12.62271886670422
GLOBALSTAR M091         
1 37741U 11033C   26025.12629716 -.00000075  00000+0  16054-3 0  9990
2 37741  52.0022 317.4568 0000621  45.7320  58.6992 12.62269026671211
GLOBALSTAR M085         
1 37742U 11033D   26025.04148246 -.00000080  00000+0  13220-3 0  9994
2 37742  52.0116 268.8823 0000956  55.9240  83.4247 12.62268671671713
GLOBALSTAR M081         
1 37743U 11033E   26025.67454456 -.00000075  00000+0  16232-3 0  9997
2 37743  51.9956 269.5523 0001002  70.9542 307.4120 12.62261794671947
GLOBALSTAR M089         
1 37744U 11033F   26025.03355499 -.00000090  00000+0  76566-4 0  9999
2 37744  51.9904 225.6897 0001109  98.6952  65.2378 12.62263879672703
